STARLINK-5166           
1 54085U 22136AL  26068.88906061 -.00003891  00000+0 -22637-3 0  9991
2 54085  53.2185 333.2592 0001207  90.1268 269.9862 15.08860719187015
LEMUR-2-LLOYD           
1 60577U 24149DP  26068.46001441  .00012007  00000+0  80143-3 0  9995
2 60577  97.6780 149.6779 0005186 125.6096 234.5616 15.07168338 85367
